CCSDS_OMM_VERS = 2.0
CREATION_DATE  = 
ORIGINATOR     = 

OBJECT_NAME    = STARLINK-36104
OBJECT_ID      = 2025-288F
CENTER_NAME    = EARTH
REF_FRAME      = TEME
TIME_SYSTEM    = UTC
MEAN_ELEMENT_THEORY = SGP/SGP4

EPOCH          = 2025-12-24T22:00:03.000096
MEAN_MOTION    = 15.67071343
ECCENTRICITY   = .00013763
INCLINATION    = 43.0004
RA_OF_ASC_NODE = 92.8607
ARG_OF_PERICENTER = 274.1710
MEAN_ANOMALY   = 303.6595

EPHEMERIS_TYPE = 0
CLASSIFICATION_TYPE = U
NORAD_CAT_ID   = 66964
ELEMENT_SET_NO = 999
REV_AT_EPOCH   = 378
BSTAR          = -.21202094E-1
MEAN_MOTION_DOT = -.20436E-1
MEAN_MOTION_DDOT = 0

CCSDS_OMM_VERS = 2.0
CREATION_DATE  = 
ORIGINATOR     = 

OBJECT_NAME    = STARLINK-36067
OBJECT_ID      = 2025-288G
CENTER_NAME    = EARTH
REF_FRAME      = TEME
TIME_SYSTEM    = UTC
MEAN_ELEMENT_THEORY = SGP/SGP4

EPOCH          = 2025-12-24T22:00:03.000096
MEAN_MOTION    = 15.67070197
ECCENTRICITY   = .00012638
INCLINATION    = 43.0003
RA_OF_ASC_NODE = 92.8562
ARG_OF_PERICENTER = 274.3295
MEAN_ANOMALY   = 305.4180

EPHEMERIS_TYPE = 0
CLASSIFICATION_TYPE = U
NORAD_CAT_ID   = 66965
ELEMENT_SET_NO = 999
REV_AT_EPOCH   = 378
BSTAR          = -.21180367E-1
MEAN_MOTION_DOT = -.204159E-1
MEAN_MOTION_DDOT = 0

CCSDS_OMM_VERS = 2.0
CREATION_DATE  = 
ORIGINATOR     = 

OBJECT_NAME    = STARLINK-36139
OBJECT_ID      = 2025-288H
CENTER_NAME    = EARTH
REF_FRAME      = TEME
TIME_SYSTEM    = UTC
MEAN_ELEMENT_THEORY = SGP/SGP4

EPOCH          = 2025-12-24T22:00:03.000096
MEAN_MOTION    = 15.67068536
ECCENTRICITY   = .00012951
INCLINATION    = 43.0006
RA_OF_ASC_NODE = 92.8512
ARG_OF_PERICENTER = 273.6967
MEAN_ANOMALY   = 307.9695

EPHEMERIS_TYPE = 0
CLASSIFICATION_TYPE = U
NORAD_CAT_ID   = 66966
ELEMENT_SET_NO = 999
REV_AT_EPOCH   = 378
BSTAR          = -.21165079E-1
MEAN_MOTION_DOT = -.2040202E-1
MEAN_MOTION_DDOT = 0

CCSDS_OMM_VERS = 2.0
CREATION_DATE  = 
ORIGINATOR     = 

OBJECT_NAME    = STARLINK-36136
OBJECT_ID      = 2025-288J
CENTER_NAME    = EARTH
REF_FRAME      = TEME
TIME_SYSTEM    = UTC
MEAN_ELEMENT_THEORY = SGP/SGP4

EPOCH          = 2025-12-24T22:00:03.000096
MEAN_MOTION    = 15.67070369
ECCENTRICITY   = .00013383
INCLINATION    = 43.0007
RA_OF_ASC_NODE = 92.8464
ARG_OF_PERICENTER = 273.2954
MEAN_ANOMALY   = 310.2858

EPHEMERIS_TYPE = 0
CLASSIFICATION_TYPE = U
NORAD_CAT_ID   = 66967
ELEMENT_SET_NO = 999
REV_AT_EPOCH   = 378
BSTAR          = -.21176226E-1
MEAN_MOTION_DOT = -.2041313E-1
MEAN_MOTION_DDOT = 0

CCSDS_OMM_VERS = 2.0
CREATION_DATE  = 
ORIGINATOR     = 

OBJECT_NAME    = STARLINK-36152
OBJECT_ID      = 2025-288K
CENTER_NAME    = EARTH
REF_FRAME      = TEME
TIME_SYSTEM    = UTC
MEAN_ELEMENT_THEORY = SGP/SGP4

EPOCH          = 2025-12-24T22:00:03.000096
MEAN_MOTION    = 15.67071536
ECCENTRICITY   = .00013209
INCLINATION    = 43.0003
RA_OF_ASC_NODE = 92.8418
ARG_OF_PERICENTER = 272.8706
MEAN_ANOMALY   = 312.6282

EPHEMERIS_TYPE = 0
CLASSIFICATION_TYPE = U
NORAD_CAT_ID   = 66968
ELEMENT_SET_NO = 999
REV_AT_EPOCH   = 378
BSTAR          = -.21204241E-1
MEAN_MOTION_DOT = -.204375E-1
MEAN_MOTION_DDOT = 0

CCSDS_OMM_VERS = 2.0
CREATION_DATE  = 
ORIGINATOR     = 

OBJECT_NAME    = STARLINK-36149
OBJECT_ID      = 2025-288L
CENTER_NAME    = EARTH
REF_FRAME      = TEME
TIME_SYSTEM    = UTC
MEAN_ELEMENT_THEORY = SGP/SGP4

EPOCH          = 2025-12-24T22:00:03.000096
MEAN_MOTION    = 15.67067842
ECCENTRICITY   = .00014072
INCLINATION    = 43.0002
RA_OF_ASC_NODE = 92.8174
ARG_OF_PERICENTER = 274.1194
MEAN_ANOMALY   = 320.9622

EPHEMERIS_TYPE = 0
CLASSIFICATION_TYPE = U
NORAD_CAT_ID   = 66969
ELEMENT_SET_NO = 999
REV_AT_EPOCH   = 378
BSTAR          = -.21102079E-1
MEAN_MOTION_DOT = -.2034922E-1
MEAN_MOTION_DDOT = 0

CCSDS_OMM_VERS = 2.0
CREATION_DATE  = 
ORIGINATOR     = 

OBJECT_NAME    = STARLINK-35703
OBJECT_ID      = 2025-288M
CENTER_NAME    = EARTH
REF_FRAME      = TEME
TIME_SYSTEM    = UTC
MEAN_ELEMENT_THEORY = SGP/SGP4

EPOCH          = 2025-12-24T22:00:03.000096
MEAN_MOTION    = 15.67065732
ECCENTRICITY   = .00013309
INCLINATION    = 43.0006
RA_OF_ASC_NODE = 92.7977
ARG_OF_PERICENTER = 271.7941
MEAN_ANOMALY   = 330.9612

EPHEMERIS_TYPE = 0
CLASSIFICATION_TYPE = U
NORAD_CAT_ID   = 66970
ELEMENT_SET_NO = 999
REV_AT_EPOCH   = 378
BSTAR          = -.21121541E-1
MEAN_MOTION_DOT = -.2036349E-1
MEAN_MOTION_DDOT = 0

CCSDS_OMM_VERS = 2.0
CREATION_DATE  = 
ORIGINATOR     = 

OBJECT_NAME    = STARLINK-35678
OBJECT_ID      = 2025-288N
CENTER_NAME    = EARTH
REF_FRAME      = TEME
TIME_SYSTEM    = UTC
MEAN_ELEMENT_THEORY = SGP/SGP4

EPOCH          = 2025-12-24T22:00:03.000096
MEAN_MOTION    = 15.67057897
ECCENTRICITY   = .00012319
INCLINATION    = 43.0005
RA_OF_ASC_NODE = 92.8377
ARG_OF_PERICENTER = 265.5110
MEAN_ANOMALY   = 321.9140

EPHEMERIS_TYPE = 0
CLASSIFICATION_TYPE = U
NORAD_CAT_ID   = 66971
ELEMENT_SET_NO = 999
REV_AT_EPOCH   = 378
BSTAR          = -.21023944E-1
MEAN_MOTION_DOT = -.2027449E-1
MEAN_MOTION_DDOT = 0

CCSDS_OMM_VERS = 2.0
CREATION_DATE  = 
ORIGINATOR     = 

OBJECT_NAME    = STARLINK-34846
OBJECT_ID      = 2025-288P
CENTER_NAME    = EARTH
REF_FRAME      = TEME
TIME_SYSTEM    = UTC
MEAN_ELEMENT_THEORY = SGP/SGP4

EPOCH          = 2025-12-24T22:00:03.000096
MEAN_MOTION    = 15.67068924
ECCENTRICITY   = .00013944
INCLINATION    = 43.0003
RA_OF_ASC_NODE = 92.8326
ARG_OF_PERICENTER = 270.8857
MEAN_ANOMALY   = 318.4470

EPHEMERIS_TYPE = 0
CLASSIFICATION_TYPE = U
NORAD_CAT_ID   = 66972
ELEMENT_SET_NO = 999
REV_AT_EPOCH   = 378
BSTAR          = -.21145005E-1
MEAN_MOTION_DOT = -.2038617E-1
MEAN_MOTION_DDOT = 0

CCSDS_OMM_VERS = 2.0
CREATION_DATE  = 
ORIGINATOR     = 

OBJECT_NAME    = STARLINK-35778
OBJECT_ID      = 2025-288Q
CENTER_NAME    = EARTH
REF_FRAME      = TEME
TIME_SYSTEM    = UTC
MEAN_ELEMENT_THEORY = SGP/SGP4

EPOCH          = 2025-12-24T22:00:03.000096
MEAN_MOTION    = 15.67070467
ECCENTRICITY   = .00013149
INCLINATION    = 43.0007
RA_OF_ASC_NODE = 92.8280
ARG_OF_PERICENTER = 271.4121
MEAN_ANOMALY   = 319.8382

EPHEMERIS_TYPE = 0
CLASSIFICATION_TYPE = U
NORAD_CAT_ID   = 66973
ELEMENT_SET_NO = 999
REV_AT_EPOCH   = 378
BSTAR          = -.21183907E-1
MEAN_MOTION_DOT = -.204195E-1
MEAN_MOTION_DDOT = 0

CCSDS_OMM_VERS = 2.0
CREATION_DATE  = 
ORIGINATOR     = 

OBJECT_NAME    = STARLINK-35780
OBJECT_ID      = 2025-288R
CENTER_NAME    = EARTH
REF_FRAME      = TEME
TIME_SYSTEM    = UTC
MEAN_ELEMENT_THEORY = SGP/SGP4

EPOCH          = 2025-12-24T22:00:03.000096
MEAN_MOTION    = 15.67068631
ECCENTRICITY   = .00013082
INCLINATION    = 43.0005
RA_OF_ASC_NODE = 92.8233
ARG_OF_PERICENTER = 270.9539
MEAN_ANOMALY   = 322.2128

EPHEMERIS_TYPE = 0
CLASSIFICATION_TYPE = U
NORAD_CAT_ID   = 66974
ELEMENT_SET_NO = 999
REV_AT_EPOCH   = 378
BSTAR          = -.21135851E-1
MEAN_MOTION_DOT = -.2037752E-1
MEAN_MOTION_DDOT = 0

CCSDS_OMM_VERS = 2.0
CREATION_DATE  = 
ORIGINATOR     = 

OBJECT_NAME    = STARLINK-35777
OBJECT_ID      = 2025-288S
CENTER_NAME    = EARTH
REF_FRAME      = TEME
TIME_SYSTEM    = UTC
MEAN_ELEMENT_THEORY = SGP/SGP4

EPOCH          = 2025-12-24T22:00:03.000096
MEAN_MOTION    = 15.67072536
ECCENTRICITY   = .00014239
INCLINATION    = 43.0004
RA_OF_ASC_NODE = 92.8127
ARG_OF_PERICENTER = 271.6667
MEAN_ANOMALY   = 325.3335

EPHEMERIS_TYPE = 0
CLASSIFICATION_TYPE = U
NORAD_CAT_ID   = 66975
ELEMENT_SET_NO = 999
REV_AT_EPOCH   = 378
BSTAR          = -.21207928E-1
MEAN_MOTION_DOT = -.2044219E-1
MEAN_MOTION_DDOT = 0

