STARLINK-36104          
1 66964U 25288F   25358.91670139 -.02043600  00000+0 -21202-1 0  9999
2 66964  43.0004  92.8607 0001376 274.1710 303.6595 15.67071343  3781
STARLINK-36067          
1 66965U 25288G   25358.91670139 -.02041590  00000+0 -21180-1 0  9991
2 66965  43.0003  92.8562 0001263 274.3295 305.4180 15.67070197  3782
STARLINK-36139          
1 66966U 25288H   25358.91670139 -.02040202  00000+0 -21165-1 0  9994
2 66966  43.0006  92.8512 0001295 273.6967 307.9695 15.67068536  3786
STARLINK-36136          
1 66967U 25288J   25358.91670139 -.02041313  00000+0 -21176-1 0  9991
2 66967  43.0007  92.8464 0001338 273.2954 310.2858 15.67070369  3789
STARLINK-36152          
1 66968U 25288K   25358.91670139 -.02043750  00000+0 -21204-1 0  9991
2 66968  43.0003  92.8418 0001320 272.8706 312.6282 15.67071536  3780
STARLINK-36149          
1 66969U 25288L   25358.91670139 -.02034922  00000+0 -21102-1 0  9990
2 66969  43.0002  92.8174 0001407 274.1194 320.9622 15.67067842  3786
STARLINK-35703          
1 66970U 25288M   25358.91670139 -.02036349  00000+0 -21122-1 0  9999
2 66970  43.0006  92.7977 0001330 271.7941 330.9612 15.67065732  3786
STARLINK-35678          
1 66971U 25288N   25358.91670139 -.02027449  00000+0 -21024-1 0  9992
2 66971  43.0005  92.8377 0001231 265.5110 321.9140 15.67057897  3789
STARLINK-34846          
1 66972U 25288P   25358.91670139 -.02038617  00000+0 -21145-1 0  9996
2 66972  43.0003  92.8326 0001394 270.8857 318.4470 15.67068924  3789
STARLINK-35778          
1 66973U 25288Q   25358.91670139 -.02041950  00000+0 -21184-1 0  9994
2 66973  43.0007  92.8280 0001314 271.4121 319.8382 15.67070467  3788
STARLINK-35780          
1 66974U 25288R   25358.91670139 -.02037752  00000+0 -21136-1 0  9997
2 66974  43.0005  92.8233 0001308 270.9539 322.2128 15.67068631  3781
STARLINK-35777          
1 66975U 25288S   25358.91670139 -.02044219  00000+0 -21208-1 0  9994
2 66975  43.0004  92.8127 0001423 271.6667 325.3335 15.67072536  3784
